{"type":"FeatureCollection","features":[{"type":"Feature","id":0,"geometry":{"type":"Polygon","coordinates":[[[77.111383988819725,29.994747336750823],[77.111383988819725,29.967797878227238],[77.102400835978528,29.967797878227238],[77.102400835978528,29.949831572544849],[77.039518766090168,29.949831572544849],[77.039518766090168,29.958814725386045],[77.030535613248972,29.958814725386045],[77.030535613248972,29.949831572544849],[77.012569307566579,29.949831572544849],[77.012569307566579,29.958814725386045],[77.003586154725383,29.958814725386045],[77.003586154725383,29.949831572544849],[76.967653543360612,29.949831572544849],[76.967653543360612,29.940848419703652],[76.949687237678219,29.940848419703652],[76.949687237678219,29.922882114021263],[76.958670390519416,29.922882114021263],[76.958670390519416,29.913898961180067],[76.940704084837023,29.913898961180067],[76.940704084837023,29.922882114021263],[76.931720931995827,29.922882114021263],[76.931720931995827,29.913898961180067],[76.904771473472238,29.913898961180067],[76.904771473472238,29.922882114021263],[76.895788320631041,29.922882114021263],[76.895788320631041,29.895932655497678],[76.886805167789845,29.895932655497678],[76.886805167789845,29.886949502656481],[76.877822014948649,29.886949502656481],[76.877822014948649,29.877966349815285],[76.850872556425074,29.877966349815285],[76.850872556425074,29.886949502656481],[76.832906250742681,29.886949502656481],[76.832906250742681,29.877966349815285],[76.823923097901485,29.877966349815285],[76.823923097901485,29.886949502656481],[76.805956792219092,29.886949502656481],[76.805956792219092,29.877966349815285],[76.761041028013111,29.877966349815285],[76.761041028013111,29.868983196974092],[76.734091569489536,29.868983196974092],[76.734091569489536,29.877966349815285],[76.716125263807143,29.877966349815285],[76.716125263807143,29.886949502656481],[76.707142110965947,29.886949502656481],[76.707142110965947,29.895932655497678],[76.69815895812475,29.895932655497678],[76.69815895812475,29.886949502656481],[76.689175805283554,29.886949502656481],[76.689175805283554,29.868983196974092],[76.671209499601161,29.868983196974092],[76.671209499601161,29.860000044132896],[76.689175805283554,29.860000044132896],[76.689175805283554,29.824067432768114],[76.707142110965947,29.824067432768114],[76.707142110965947,29.815084279926921],[76.716125263807143,29.815084279926921],[76.716125263807143,29.806101127085725],[76.707142110965947,29.806101127085725],[76.707142110965947,29.797117974244529],[76.69815895812475,29.797117974244529],[76.69815895812475,29.77915166856214],[76.689175805283554,29.77915166856214],[76.689175805283554,29.770168515720943],[76.680192652442358,29.770168515720943],[76.680192652442358,29.761185362879747],[76.689175805283554,29.761185362879747],[76.689175805283554,29.752202210038554],[76.69815895812475,29.752202210038554],[76.69815895812475,29.725252751514969],[76.680192652442358,29.725252751514969],[76.680192652442358,29.716269598673772],[76.671209499601161,29.716269598673772],[76.671209499601161,29.707286445832576],[76.689175805283554,29.707286445832576],[76.689175805283554,29.698303292991383],[76.716125263807143,29.698303292991383],[76.716125263807143,29.689320140150187],[76.707142110965947,29.689320140150187],[76.707142110965947,29.671353834467798],[76.653243193918769,29.671353834467798],[76.653243193918769,29.662370681626602],[76.644260041077573,29.662370681626602],[76.644260041077573,29.653387528785405],[76.635276888236376,29.653387528785405],[76.635276888236376,29.644404375944212],[76.617310582553998,29.644404375944212],[76.617310582553998,29.635421223103016],[76.608327429712801,29.635421223103016],[76.608327429712801,29.62643807026182],[76.545445359824427,29.62643807026182],[76.545445359824427,29.617454917420623],[76.527479054142034,29.617454917420623],[76.527479054142034,29.608471764579431],[76.536462206983231,29.608471764579431],[76.536462206983231,29.599488611738234],[76.545445359824427,29.599488611738234],[76.545445359824427,29.572539153214649],[76.527479054142034,29.572539153214649],[76.527479054142034,29.536606541849867],[76.518495901300838,29.536606541849867],[76.518495901300838,29.527623389008674],[76.509512748459656,29.527623389008674],[76.509512748459656,29.518640236167478],[76.50052959561846,29.518640236167478],[76.50052959561846,29.482707624802696],[76.482563289936067,29.482707624802696],[76.482563289936067,29.455758166279111],[76.473580137094871,29.455758166279111],[76.473580137094871,29.437791860596722],[76.464596984253674,29.437791860596722],[76.464596984253674,29.419825554914329],[76.482563289936067,29.419825554914329],[76.482563289936067,29.428808707755525],[76.518495901300838,29.428808707755525],[76.518495901300838,29.437791860596722],[76.527479054142034,29.437791860596722],[76.527479054142034,29.455758166279111],[76.554428512665623,29.455758166279111],[76.554428512665623,29.464741319120307],[76.590361124030409,29.464741319120307],[76.590361124030409,29.4737244719615],[76.608327429712801,29.4737244719615],[76.608327429712801,29.482707624802696],[76.617310582553998,29.482707624802696],[76.617310582553998,29.4737244719615],[76.644260041077573,29.4737244719615],[76.644260041077573,29.491690777643893],[76.662226346759965,29.491690777643893],[76.662226346759965,29.482707624802696],[76.689175805283554,29.482707624802696],[76.689175805283554,29.4737244719615],[76.716125263807143,29.4737244719615],[76.716125263807143,29.482707624802696],[76.743074722330718,29.482707624802696],[76.743074722330718,29.4737244719615],[76.752057875171914,29.4737244719615],[76.752057875171914,29.464741319120307],[76.770024180854307,29.464741319120307],[76.770024180854307,29.4737244719615],[76.779007333695503,29.4737244719615],[76.779007333695503,29.464741319120307],[76.796973639377896,29.464741319120307],[76.796973639377896,29.482707624802696],[76.805956792219092,29.482707624802696],[76.805956792219092,29.491690777643893],[76.814939945060289,29.491690777643893],[76.814939945060289,29.509657083326282],[76.832906250742681,29.509657083326282],[76.832906250742681,29.500673930485089],[76.850872556425074,29.500673930485089],[76.850872556425074,29.491690777643893],[76.886805167789845,29.491690777643893],[76.886805167789845,29.509657083326282],[76.895788320631041,29.509657083326282],[76.895788320631041,29.518640236167478],[76.913754626313434,29.518640236167478],[76.913754626313434,29.509657083326282],[76.904771473472238,29.509657083326282],[76.904771473472238,29.4737244719615],[76.913754626313434,29.4737244719615],[76.913754626313434,29.482707624802696],[76.976636696201794,29.482707624802696],[76.976636696201794,29.4737244719615],[76.994603001884187,29.4737244719615],[76.994603001884187,29.464741319120307],[77.057485071772561,29.464741319120307],[77.057485071772561,29.4737244719615],[77.075451377454954,29.4737244719615],[77.075451377454954,29.464741319120307],[77.08443453029615,29.464741319120307],[77.08443453029615,29.455758166279111],[77.093417683137332,29.455758166279111],[77.093417683137332,29.464741319120307],[77.120367141660921,29.464741319120307],[77.120367141660921,29.4737244719615],[77.129350294502117,29.4737244719615],[77.129350294502117,29.491690777643893],[77.120367141660921,29.491690777643893],[77.120367141660921,29.500673930485089],[77.111383988819725,29.500673930485089],[77.111383988819725,29.509657083326282],[77.102400835978528,29.509657083326282],[77.102400835978528,29.518640236167478],[77.093417683137332,29.518640236167478],[77.093417683137332,29.527623389008674],[77.102400835978528,29.527623389008674],[77.102400835978528,29.545589694691063],[77.111383988819725,29.545589694691063],[77.111383988819725,29.55457284753226],[77.129350294502117,29.55457284753226],[77.129350294502117,29.563556000373453],[77.120367141660921,29.563556000373453],[77.120367141660921,29.572539153214649],[77.102400835978528,29.572539153214649],[77.102400835978528,29.581522306055845],[77.08443453029615,29.581522306055845],[77.08443453029615,29.590505458897038],[77.102400835978528,29.590505458897038],[77.102400835978528,29.599488611738234],[77.111383988819725,29.599488611738234],[77.111383988819725,29.617454917420623],[77.102400835978528,29.617454917420623],[77.102400835978528,29.635421223103016],[77.129350294502117,29.635421223103016],[77.129350294502117,29.644404375944212],[77.138333447343314,29.644404375944212],[77.138333447343314,29.671353834467798],[77.14731660018451,29.671353834467798],[77.14731660018451,29.689320140150187],[77.156299753025706,29.689320140150187],[77.156299753025706,29.707286445832576],[77.14731660018451,29.707286445832576],[77.14731660018451,29.716269598673772],[77.129350294502117,29.716269598673772],[77.129350294502117,29.725252751514969],[77.138333447343314,29.725252751514969],[77.138333447343314,29.743219057197358],[77.129350294502117,29.743219057197358],[77.129350294502117,29.752202210038554],[77.120367141660921,29.752202210038554],[77.120367141660921,29.770168515720943],[77.14731660018451,29.770168515720943],[77.14731660018451,29.788134821403336],[77.165282905866903,29.788134821403336],[77.165282905866903,29.797117974244529],[77.174266058708099,29.797117974244529],[77.174266058708099,29.815084279926921],[77.183249211549295,29.815084279926921],[77.183249211549295,29.83305058560931],[77.174266058708099,29.83305058560931],[77.174266058708099,29.8510168912917],[77.183249211549295,29.8510168912917],[77.183249211549295,29.860000044132896],[77.201215517231674,29.860000044132896],[77.201215517231674,29.886949502656481],[77.192232364390492,29.886949502656481],[77.192232364390492,29.895932655497678],[77.183249211549295,29.895932655497678],[77.183249211549295,29.913898961180067],[77.21019867007287,29.913898961180067],[77.21019867007287,29.922882114021263],[77.219181822914067,29.922882114021263],[77.219181822914067,29.931865266862456],[77.228164975755263,29.931865266862456],[77.228164975755263,29.940848419703652],[77.183249211549295,29.940848419703652],[77.183249211549295,29.949831572544849],[77.192232364390492,29.949831572544849],[77.192232364390492,29.958814725386045],[77.183249211549295,29.958814725386045],[77.183249211549295,29.967797878227238],[77.138333447343314,29.967797878227238],[77.138333447343314,29.976781031068434],[77.129350294502117,29.976781031068434],[77.129350294502117,29.98576418390963],[77.120367141660921,29.98576418390963],[77.120367141660921,29.994747336750823],[77.111383988819725,29.994747336750823]],[[76.976636696201794,29.509657083326282],[76.976636696201794,29.500673930485089],[76.967653543360612,29.500673930485089],[76.967653543360612,29.509657083326282],[76.976636696201794,29.509657083326282]]]},"properties":{"FID":0,"count":2862,"label":1}}]}